OBJECT_NAME,OBJECT_ID,EPOCH,MEAN_MOTION,ECCENTRICITY,INCLINATION,RA_OF_ASC_NODE,ARG_OF_PERICENTER,MEAN_ANOMALY,EPHEMERIS_TYPE,CLASSIFICATION_TYPE,NORAD_CAT_ID,ELEMENT_SET_NO,REV_AT_EPOCH,BSTAR,MEAN_MOTION_DOT,MEAN_MOTION_DDOT
POLYITAN-1,2014-033AJ,2026-07-17T14:01:25.438944,15.34270589,.0007692,98.0931,227.7445,57.2583,302.9398,0,U,40042,999,65825,.3009E-3,.9903E-4,0
TIGRISAT,2014-033AK,2026-07-17T08:46:30.769824,14.85252924,.0048463,97.7867,347.6934,337.1451,22.7607,0,U,40043,999,65010,.84001E-4,.68E-5,0
AEROCUBE 6A,2014-033AM,2026-07-16T22:39:14.285376,14.98354655,.0036191,97.7255,4.5832,274.9272,84.7819,0,U,40045,999,65107,.2714E-3,.3216E-4,0
AEROCUBE 6B,2014-033AN,2026-07-16T23:36:58.928832,14.99807134,.0038104,97.7204,4.4736,263.7831,95.9051,0,U,40046,999,65122,.20058E-3,.2456E-4,0
CANX-4,2014-034C,2026-07-17T14:47:58.083072,14.81313347,.0011375,98.3079,75.0414,274.1361,85.8550,0,U,40055,999,64903,.53443E-4,.36E-5,0
CANX-5,2014-034D,2026-07-17T14:45:11.992896,14.81330705,.0011377,98.3082,75.0848,274.3961,85.5950,0,U,40056,999,63984,.53318E-4,.359E-5,0
UKUBE-1,2014-037F,2026-07-17T10:37:05.819808,15.13969103,.0003208,98.4243,204.9043,84.0580,276.1015,0,U,40074,999,65313,.24726E-3,.4406E-4,0
BRITE-PL2 (HEWELIUSZ),2014-049B,2026-07-16T21:31:13.773216,14.94689258,.00141718,97.9120,310.1310,16.6624,343.5058,0,U,40119,999,64588,.50494606E-4,.489E-5,0
AEROCUBE 5C,2015-058B,2026-07-17T01:48:10.725696,14.91582977,.013248,64.7659,169.5989,51.7262,309.5681,0,U,40965,999,37011,.15601E-3,.1675E-4,0
AEROCUBE 7,2015-058C,2026-07-16T23:39:04.893984,14.95923765,.012216,64.7615,151.4659,50.0788,311.0985,0,U,40966,999,37041,.21755E-3,.2653E-4,0
FOX-1A (AO-85),2015-058D,2026-07-17T16:03:20.236608,14.91096654,.0132567,64.7726,184.2446,44.8704,316.3033,0,U,40967,999,11811,.14739E-3,.1551E-4,0
SINOD-D 1,2015-058E,2026-07-17T08:39:47.720736,14.96100252,.0121239,64.7739,164.4048,41.3410,319.6802,0,U,40968,999,12117,.2219E-3,.2718E-4,0
SNAP-3 ALICE,2015-058G,2026-07-17T10:03:30.690144,15.67667935,.0025172,64.7498,358.8171,346.8041,13.2446,0,U,40970,999,12161,.87459E-3,.98749E-3,0
LMRST-SAT,2015-058H,2026-07-17T13:33:39.378240,14.90711305,.0134107,64.7732,180.9639,46.9094,314.3147,0,U,40971,999,11808,.14526E-3,.1515E-4,0
SNAP-3 EDDIE,2015-058J,2026-07-16T19:27:54.633600,15.68956444,.00260721,64.7408,351.4391,349.8624,10.1996,0,U,40972,999,12366,.88045894E-3,.105052E-2,0
PROPCUBE 3,2015-058K,2026-07-17T14:13:15.976128,14.94427244,.0125963,64.7677,157.5246,48.0990,313.0784,0,U,40973,999,11934,.1881E-3,.2194E-4,0
BISONSAT,2015-058L,2026-07-17T15:07:07.582368,15.16970992,.0082368,64.7580,75.1554,34.8210,325.8265,0,U,40974,999,12023,.34529E-3,.7265E-4,0
SNAP-3 JIMI,2015-058M,2026-07-17T05:00:19.330848,15.02625998,.0107996,64.7650,124.7624,43.5616,317.3966,0,U,40975,999,11873,.26869E-3,.3885E-4,0
PROPCUBE 1 (FLORA),2015-058N,2026-07-17T09:55:35.107392,14.89334482,.0132648,64.7717,201.5466,49.2408,312.0126,0,U,40976,999,12076,.13141E-3,.1295E-4,0
SINOD-D 3,2015-058P,2026-07-17T16:42:16.875360,14.94185182,.0121269,64.7708,180.5354,46.1748,314.9313,0,U,40977,999,11931,.18554E-3,.2121E-4,0
RAVAN,2016-067B,2026-07-16T16:29:31.011072,15.57575989,.00024225,97.9839,90.7306,209.8992,150.2123,0,U,41849,999,53228,.50617754E-3,.37324E-3,0
CELTEE 1,2016-067C,2026-07-17T02:20:44.375712,15.19951703,.00023622,98.0628,66.7044,107.7309,252.4182,0,U,41850,999,53042,.13018474E-3,.2721E-4,0
OPTICUBE 04,2016-067D,2026-07-17T02:28:51.794400,15.09776222,.0016039,98.0673,51.9459,21.6935,338.4969,0,U,41851,999,52968,.58836E-4,.881E-5,0
AEROCUBE 8D,2016-067E,2026-07-17T02:00:47.829024,15.24785915,.00044749,98.0637,70.5317,51.9450,308.2189,0,U,41852,999,53062,.16734226E-3,.4067E-4,0
AEROCUBE 8C,2016-067F,2026-07-17T02:29:38.963616,15.25039218,.0004029,98.0511,67.7427,334.0627,26.0407,0,U,41853,999,53062,.15744E-3,.3851E-4,0
CORVUS BC2,2017-042X,2026-07-17T16:25:24.054816,15.06462559,.0013197,97.4093,358.8567,14.6637,345.4971,0,U,42846,999,49165,.76839E-4,.1076E-4,0
CORVUS BC1,2017-042Y,2026-07-17T09:50:15.784224,15.06626122,.0011421,97.4124,359.4265,352.1585,7.9462,0,U,42847,999,49164,.10483E-3,.1496E-4,0
MAKERSAT 0,2017-073D,2026-07-17T09:50:19.152096,15.33060135,.0105553,97.4574,81.1775,164.4001,196.0537,0,U,43016,999,47109,.30369E-3,.11512E-3,0
SIRION PATHFINDER-2,2018-099B,2026-07-17T08:56:15.309024,15.14786252,.0008681,97.4235,246.7144,183.7729,176.3440,0,U,43759,999,41719,.1086E-3,.1952E-4,0
CORVUS BC4,2018-099K,2026-07-17T02:08:44.063232,15.12709455,.0006573,97.4048,240.1958,252.7668,107.2844,0,U,43767,999,41692,.10409E-3,.176E-4,0
